[
  {
    "OBJECT_NAME": "STARLINK-1320",
    "OBJECT_ID": "20025AT",
    "EPOCH": "2025-11-11T01:55:10.155360",
    "MEAN_MOTION": 15.44422766,
    "ECCENTRICITY": 0.0010047,
    "INCLINATION": 53.0562,
    "RA_OF_ASC_NODE": 199.6601,
    "ARG_OF_PERICENTER": 63.4913,
    "MEAN_ANOMALY": 296.7122,
    "EPHEMERIS_TYPE": 0,
    "CLASSIFICATION_TYPE": "U",
    "NORAD_CAT_ID": 45572,
    "ELEMENT_SET_NO": 999,
    "REV_AT_EPOCH": 30834,
    "BSTAR": 0.0013613,
    "MEAN_MOTION_DOT": 0.00064157,
    "MEAN_MOTION_DDOT": 0.0,
    "TLE_LINE1": "1 45572U 20025AT  25315.07997865  .00064157  00000+0  13613-2 0  9997",
    "TLE_LINE2": "2 45572  53.0562 199.6601 0010047  63.4913 296.7122 15.44422766308344",
    "COMMENT": "Grouped by shell and plane from TLE"
  },
  {
    "OBJECT_NAME": "STARLINK-1446",
    "OBJECT_ID": "20035G",
    "EPOCH": "2025-11-11T01:46:19.679232",
    "MEAN_MOTION": 15.34531421,
    "ECCENTRICITY": 0.0002217,
    "INCLINATION": 53.026,
    "RA_OF_ASC_NODE": 199.9213,
    "ARG_OF_PERICENTER": 84.797,
    "MEAN_ANOMALY": 275.3284,
    "EPHEMERIS_TYPE": 0,
    "CLASSIFICATION_TYPE": "U",
    "NORAD_CAT_ID": 45663,
    "ELEMENT_SET_NO": 999,
    "REV_AT_EPOCH": 30140,
    "BSTAR": 0.0014612,
    "MEAN_MOTION_DOT": 0.00049533,
    "MEAN_MOTION_DDOT": 0.0,
    "TLE_LINE1": "1 45663U 20035G   25315.07383888  .00049533  00000+0  14612-2 0  9994",
    "TLE_LINE2": "2 45663  53.0260 199.9213 0002217  84.7970 275.3284 15.34531421301401",
    "COMMENT": "Grouped by shell and plane from TLE"
  },
  {
    "OBJECT_NAME": "STARLINK-1411",
    "OBJECT_ID": "20035BB",
    "EPOCH": "2025-11-11T01:33:06.472800",
    "MEAN_MOTION": 15.42342476,
    "ECCENTRICITY": 0.0002546,
    "INCLINATION": 53.0515,
    "RA_OF_ASC_NODE": 192.2743,
    "ARG_OF_PERICENTER": 143.7242,
    "MEAN_ANOMALY": 216.3936,
    "EPHEMERIS_TYPE": 0,
    "CLASSIFICATION_TYPE": "U",
    "NORAD_CAT_ID": 45706,
    "ELEMENT_SET_NO": 999,
    "REV_AT_EPOCH": 30150,
    "BSTAR": 0.0013603999999999999,
    "MEAN_MOTION_DOT": 0.0005962,
    "MEAN_MOTION_DDOT": 0.0,
    "TLE_LINE1": "1 45706U 20035BB  25315.06465825  .00059620  00000+0  13604-2 0  9991",
    "TLE_LINE2": "2 45706  53.0515 192.2743 0002546 143.7242 216.3936 15.42342476301508",
    "COMMENT": "Grouped by shell and plane from TLE"
  },
  {
    "OBJECT_NAME": "STARLINK-2117",
    "OBJECT_ID": "21005AY",
    "EPOCH": "2025-11-11T08:00:03.000384",
    "MEAN_MOTION": 15.29504411,
    "ECCENTRICITY": 0.0001091,
    "INCLINATION": 53.0537,
    "RA_OF_ASC_NODE": 191.7697,
    "ARG_OF_PERICENTER": 84.7907,
    "MEAN_ANOMALY": 119.9595,
    "EPHEMERIS_TYPE": 0,
    "CLASSIFICATION_TYPE": "U",
    "NORAD_CAT_ID": 47395,
    "ELEMENT_SET_NO": 999,
    "REV_AT_EPOCH": 564,
    "BSTAR": 0.05218300000000001,
    "MEAN_MOTION_DOT": 0.01672947,
    "MEAN_MOTION_DDOT": 0.0,
    "TLE_LINE1": "1 47395U 21005AY  25315.33336806  .01672947  00000+0  52183-1 0  9999",
    "TLE_LINE2": "2 47395  53.0537 191.7697 0001091  84.7907 119.9595 15.29504411  5645",
    "COMMENT": "Grouped by shell and plane from TLE"
  },
  {
    "OBJECT_NAME": "STARLINK-2133",
    "OBJECT_ID": "21005BK",
    "EPOCH": "2025-11-11T08:00:03.000384",
    "MEAN_MOTION": 15.4781136,
    "ECCENTRICITY": 0.0001357,
    "INCLINATION": 53.0543,
    "RA_OF_ASC_NODE": 193.6818,
    "ARG_OF_PERICENTER": 97.6604,
    "MEAN_ANOMALY": 313.1521,
    "EPHEMERIS_TYPE": 0,
    "CLASSIFICATION_TYPE": "U",
    "NORAD_CAT_ID": 47406,
    "ELEMENT_SET_NO": 999,
    "REV_AT_EPOCH": 587,
    "BSTAR": 0.0022697,
    "MEAN_MOTION_DOT": 0.00121236,
    "MEAN_MOTION_DDOT": 0.0,
    "TLE_LINE1": "1 47406U 21005BK  25315.33336806  .00121236  00000+0  22697-2 0  9999",
    "TLE_LINE2": "2 47406  53.0543 193.6818 0001357  97.6604 313.1521 15.47811360  5879",
    "COMMENT": "Grouped by shell and plane from TLE"
  },
  {
    "OBJECT_NAME": "STARLINK-1993",
    "OBJECT_ID": "21009AS",
    "EPOCH": "2025-11-11T08:00:03.000384",
    "MEAN_MOTION": 15.40155666,
    "ECCENTRICITY": 0.00014,
    "INCLINATION": 53.0547,
    "RA_OF_ASC_NODE": 190.3487,
    "ARG_OF_PERICENTER": 100.2834,
    "MEAN_ANOMALY": 332.8073,
    "EPHEMERIS_TYPE": 0,
    "CLASSIFICATION_TYPE": "U",
    "NORAD_CAT_ID": 47588,
    "ELEMENT_SET_NO": 999,
    "REV_AT_EPOCH": 575,
    "BSTAR": 0.00022281000000000002,
    "MEAN_MOTION_DOT": 8.68e-05,
    "MEAN_MOTION_DDOT": 0.0,
    "TLE_LINE1": "1 47588U 21009AS  25315.33336806  .00008680  00000+0  22281-3 0  9991",
    "TLE_LINE2": "2 47588  53.0547 190.3487 0001400 100.2834 332.8073 15.40155666  5755",
    "COMMENT": "Grouped by shell and plane from TLE"
  },
  {
    "OBJECT_NAME": "STARLINK-2052",
    "OBJECT_ID": "21012AU",
    "EPOCH": "2025-11-11T08:00:03.000384",
    "MEAN_MOTION": 15.48828696,
    "ECCENTRICITY": 0.0010547,
    "INCLINATION": 53.0444,
    "RA_OF_ASC_NODE": 196.7824,
    "ARG_OF_PERICENTER": 83.2264,
    "MEAN_ANOMALY": 267.9877,
    "EPHEMERIS_TYPE": 0,
    "CLASSIFICATION_TYPE": "U",
    "NORAD_CAT_ID": 47662,
    "ELEMENT_SET_NO": 999,
    "REV_AT_EPOCH": 590,
    "BSTAR": 0.0016875000000000002,
    "MEAN_MOTION_DOT": 0.00093132,
    "MEAN_MOTION_DDOT": 0.0,
    "TLE_LINE1": "1 47662U 21012AU  25315.33336806  .00093132  00000+0  16875-2 0  9995",
    "TLE_LINE2": "2 47662  53.0444 196.7824 0010547  83.2264 267.9877 15.48828696  5903",
    "COMMENT": "Grouped by shell and plane from TLE"
  },
  {
    "OBJECT_NAME": "STARLINK-30550",
    "OBJECT_ID": "23156T",
    "EPOCH": "2025-11-11T01:33:14.028480",
    "MEAN_MOTION": 15.30203449,
    "ECCENTRICITY": 8e-05,
    "INCLINATION": 53.1597,
    "RA_OF_ASC_NODE": 192.353,
    "ARG_OF_PERICENTER": 96.1105,
    "MEAN_ANOMALY": 263.9987,
    "EPHEMERIS_TYPE": 0,
    "CLASSIFICATION_TYPE": "U",
    "NORAD_CAT_ID": 58045,
    "ELEMENT_SET_NO": 999,
    "REV_AT_EPOCH": 11921,
    "BSTAR": 2.5938e-05,
    "MEAN_MOTION_DOT": 4.09e-06,
    "MEAN_MOTION_DDOT": 0.0,
    "TLE_LINE1": "1 58045U 23156T   25315.06474570  .00000409  00000+0  25938-4 0  9991",
    "TLE_LINE2": "2 58045  53.1597 192.3530 0000800  96.1105 263.9987 15.30203449119216",
    "COMMENT": "Grouped by shell and plane from TLE"
  },
  {
    "OBJECT_NAME": "STARLINK-30480",
    "OBJECT_ID": "23158U",
    "EPOCH": "2025-11-11T02:16:37.212096",
    "MEAN_MOTION": 15.27586789,
    "ECCENTRICITY": 0.0001512,
    "INCLINATION": 43.0018,
    "RA_OF_ASC_NODE": 194.5868,
    "ARG_OF_PERICENTER": 280.9379,
    "MEAN_ANOMALY": 79.1303,
    "EPHEMERIS_TYPE": 0,
    "CLASSIFICATION_TYPE": "U",
    "NORAD_CAT_ID": 58069,
    "ELEMENT_SET_NO": 999,
    "REV_AT_EPOCH": 11710,
    "BSTAR": 0.0,
    "MEAN_MOTION_DOT": -1.827e-05,
    "MEAN_MOTION_DDOT": 0.0,
    "TLE_LINE1": "1 58069U 23158U   25315.09487514 -.00001827  00000+0 -56859-4 0  9997",
    "TLE_LINE2": "2 58069  43.0018 194.5868 0001512 280.9379  79.1303 15.27586789117105",
    "COMMENT": "Grouped by shell and plane from TLE"
  },
  {
    "OBJECT_NAME": "STARLINK-30911",
    "OBJECT_ID": "23178A",
    "EPOCH": "2025-11-11T01:51:20.327040",
    "MEAN_MOTION": 15.30200823,
    "ECCENTRICITY": 0.0001199,
    "INCLINATION": 53.159,
    "RA_OF_ASC_NODE": 191.8478,
    "ARG_OF_PERICENTER": 74.4085,
    "MEAN_ANOMALY": 285.7048,
    "EPHEMERIS_TYPE": 0,
    "CLASSIFICATION_TYPE": "U",
    "NORAD_CAT_ID": 58374,
    "ELEMENT_SET_NO": 999,
    "REV_AT_EPOCH": 11172,
    "BSTAR": 4.3245000000000004e-05,
    "MEAN_MOTION_DOT": 9.22e-06,
    "MEAN_MOTION_DDOT": 0.0,
    "TLE_LINE1": "1 58374U 23178A   25315.07731860  .00000922  00000+0  43245-4 0  9990",
    "TLE_LINE2": "2 58374  53.1590 191.8478 0001199  74.4085 285.7048 15.30200823111728",
    "COMMENT": "Grouped by shell and plane from TLE"
  },
  {
    "OBJECT_NAME": "STARLINK-30894",
    "OBJECT_ID": "23178B",
    "EPOCH": "2025-11-11T00:32:29.766336",
    "MEAN_MOTION": 15.30232063,
    "ECCENTRICITY": 0.0001861,
    "INCLINATION": 53.164,
    "RA_OF_ASC_NODE": 192.2225,
    "ARG_OF_PERICENTER": 76.8172,
    "MEAN_ANOMALY": 283.3036,
    "EPHEMERIS_TYPE": 0,
    "CLASSIFICATION_TYPE": "U",
    "NORAD_CAT_ID": 58375,
    "ELEMENT_SET_NO": 999,
    "REV_AT_EPOCH": 11165,
    "BSTAR": 0.0,
    "MEAN_MOTION_DOT": -5.346e-05,
    "MEAN_MOTION_DDOT": 0.0,
    "TLE_LINE1": "1 58375U 23178B   25315.02256674 -.00005346  00000+0 -16831-3 0  9998",
    "TLE_LINE2": "2 58375  53.1640 192.2225 0001861  76.8172 283.3036 15.30232063111653",
    "COMMENT": "Grouped by shell and plane from TLE"
  },
  {
    "OBJECT_NAME": "STARLINK-30910",
    "OBJECT_ID": "23178C",
    "EPOCH": "2025-11-11T00:37:03.313056",
    "MEAN_MOTION": 15.30191674,
    "ECCENTRICITY": 0.0001418,
    "INCLINATION": 53.1534,
    "RA_OF_ASC_NODE": 192.2477,
    "ARG_OF_PERICENTER": 90.4511,
    "MEAN_ANOMALY": 269.6652,
    "EPHEMERIS_TYPE": 0,
    "CLASSIFICATION_TYPE": "U",
    "NORAD_CAT_ID": 58376,
    "ELEMENT_SET_NO": 999,
    "REV_AT_EPOCH": 11172,
    "BSTAR": 4.5994e-05,
    "MEAN_MOTION_DOT": 1.003e-05,
    "MEAN_MOTION_DDOT": 0.0,
    "TLE_LINE1": "1 58376U 23178C   25315.02573279  .00001003  00000+0  45994-4 0  9999",
    "TLE_LINE2": "2 58376  53.1534 192.2477 0001418  90.4511 269.6652 15.30191674111723",
    "COMMENT": "Grouped by shell and plane from TLE"
  },
  {
    "OBJECT_NAME": "STARLINK-30914",
    "OBJECT_ID": "23178D",
    "EPOCH": "2025-11-11T01:54:22.256928",
    "MEAN_MOTION": 15.30207866,
    "ECCENTRICITY": 9.85e-05,
    "INCLINATION": 53.158,
    "RA_OF_ASC_NODE": 191.8517,
    "ARG_OF_PERICENTER": 120.6602,
    "MEAN_ANOMALY": 239.4496,
    "EPHEMERIS_TYPE": 0,
    "CLASSIFICATION_TYPE": "U",
    "NORAD_CAT_ID": 58377,
    "ELEMENT_SET_NO": 999,
    "REV_AT_EPOCH": 11173,
    "BSTAR": 7.307e-05,
    "MEAN_MOTION_DOT": 1.806e-05,
    "MEAN_MOTION_DDOT": 0.0,
    "TLE_LINE1": "1 58377U 23178D   25315.07942427  .00001806  00000+0  73070-4 0  9997",
    "TLE_LINE2": "2 58377  53.1580 191.8517 0000985 120.6602 239.4496 15.30207866111733",
    "COMMENT": "Grouped by shell and plane from TLE"
  }
]